[{"OBJECT_NAME":"STARLINK-36925","OBJECT_ID":"2026-041C","EPOCH":"2026-03-20T08:46:26.681376","MEAN_MOTION":15.75310145,"ECCENTRICITY":9.0e-5,"INCLINATION":53.1595,"RA_OF_ASC_NODE":8.8746,"ARG_OF_PERICENTER":87.957,"MEAN_ANOMALY":272.1553,"EPHEMERIS_TYPE":0,"CLASSIFICATION_TYPE":"U","NORAD_CAT_ID":68042,"ELEMENT_SET_NO":999,"REV_AT_EPOCH":290,"BSTAR":0.0013249,"MEAN_MOTION_DOT":0.00208179,"MEAN_MOTION_DDOT":0},{"OBJECT_NAME":"STARLINK-36902","OBJECT_ID":"2026-041D","EPOCH":"2026-03-20T06:43:02.451072","MEAN_MOTION":15.80950652,"ECCENTRICITY":0.0001372,"INCLINATION":53.1601,"RA_OF_ASC_NODE":9.0427,"ARG_OF_PERICENTER":95.7742,"MEAN_ANOMALY":264.3437,"EPHEMERIS_TYPE":0,"CLASSIFICATION_TYPE":"U","NORAD_CAT_ID":68043,"ELEMENT_SET_NO":999,"REV_AT_EPOCH":289,"BSTAR":0.0011893,"MEAN_MOTION_DOT":0.00241581,"MEAN_MOTION_DDOT":0},{"OBJECT_NAME":"STARLINK-36966","OBJECT_ID":"2026-041E","EPOCH":"2026-03-20T07:08:32.874144","MEAN_MOTION":15.75269682,"ECCENTRICITY":8.41e-5,"INCLINATION":53.1599,"RA_OF_ASC_NODE":9.1605,"ARG_OF_PERICENTER":104.655,"MEAN_ANOMALY":255.4563,"EPHEMERIS_TYPE":0,"CLASSIFICATION_TYPE":"U","NORAD_CAT_ID":68044,"ELEMENT_SET_NO":999,"REV_AT_EPOCH":289,"BSTAR":0.00071168,"MEAN_MOTION_DOT":0.00110029,"MEAN_MOTION_DDOT":0},{"OBJECT_NAME":"STARLINK-36864","OBJECT_ID":"2026-041F","EPOCH":"2026-03-20T07:08:04.546176","MEAN_MOTION":15.75256329,"ECCENTRICITY":9.64e-5,"INCLINATION":53.16,"RA_OF_ASC_NODE":9.1586,"ARG_OF_PERICENTER":105.6169,"MEAN_ANOMALY":254.4958,"EPHEMERIS_TYPE":0,"CLASSIFICATION_TYPE":"U","NORAD_CAT_ID":68045,"ELEMENT_SET_NO":999,"REV_AT_EPOCH":289,"BSTAR":0.00051314,"MEAN_MOTION_DOT":0.00078814,"MEAN_MOTION_DDOT":0},{"OBJECT_NAME":"STARLINK-36321","OBJECT_ID":"2026-041G","EPOCH":"2026-03-20T12:42:51.834240","MEAN_MOTION":15.81014966,"ECCENTRICITY":0.0001298,"INCLINATION":53.1601,"RA_OF_ASC_NODE":7.7555,"ARG_OF_PERICENTER":95.8386,"MEAN_ANOMALY":264.2785,"EPHEMERIS_TYPE":0,"CLASSIFICATION_TYPE":"U","NORAD_CAT_ID":68046,"ELEMENT_SET_NO":999,"REV_AT_EPOCH":293,"BSTAR":0.0019549,"MEAN_MOTION_DOT":0.00406505,"MEAN_MOTION_DDOT":0},{"OBJECT_NAME":"STARLINK-36181","OBJECT_ID":"2026-041H","EPOCH":"2026-03-20T09:41:51.952128","MEAN_MOTION":15.80980124,"ECCENTRICITY":6.08e-5,"INCLINATION":53.1601,"RA_OF_ASC_NODE":8.3932,"ARG_OF_PERICENTER":96.0375,"MEAN_ANOMALY":264.0717,"EPHEMERIS_TYPE":0,"CLASSIFICATION_TYPE":"U","NORAD_CAT_ID":68047,"ELEMENT_SET_NO":999,"REV_AT_EPOCH":291,"BSTAR":0.0013337,"MEAN_MOTION_DOT":0.00272353,"MEAN_MOTION_DDOT":0},{"OBJECT_NAME":"STARLINK-36318","OBJECT_ID":"2026-041J","EPOCH":"2026-03-20T10:04:44.204448","MEAN_MOTION":15.75292638,"ECCENTRICITY":0.0001162,"INCLINATION":53.1605,"RA_OF_ASC_NODE":8.4997,"ARG_OF_PERICENTER":53.09,"MEAN_ANOMALY":307.0226,"EPHEMERIS_TYPE":0,"CLASSIFICATION_TYPE":"U","NORAD_CAT_ID":68048,"ELEMENT_SET_NO":999,"REV_AT_EPOCH":291,"BSTAR":0.001154,"MEAN_MOTION_DOT":0.00180493,"MEAN_MOTION_DDOT":0},{"OBJECT_NAME":"STARLINK-36885","OBJECT_ID":"2026-041K","EPOCH":"2026-03-20T07:01:32.227104","MEAN_MOTION":15.75290289,"ECCENTRICITY":0.0001073,"INCLINATION":53.1604,"RA_OF_ASC_NODE":9.128,"ARG_OF_PERICENTER":96.9445,"MEAN_ANOMALY":263.1698,"EPHEMERIS_TYPE":0,"CLASSIFICATION_TYPE":"U","NORAD_CAT_ID":68049,"ELEMENT_SET_NO":999,"REV_AT_EPOCH":289,"BSTAR":0.001088,"MEAN_MOTION_DOT":0.00169902,"MEAN_MOTION_DDOT":0},{"OBJECT_NAME":"STARLINK-36945","OBJECT_ID":"2026-041L","EPOCH":"2026-03-20T08:07:35.450400","MEAN_MOTION":15.80962691,"ECCENTRICITY":7.45e-5,"INCLINATION":53.1601,"RA_OF_ASC_NODE":8.6947,"ARG_OF_PERICENTER":104.6649,"MEAN_ANOMALY":255.4456,"EPHEMERIS_TYPE":0,"CLASSIFICATION_TYPE":"U","NORAD_CAT_ID":68050,"ELEMENT_SET_NO":999,"REV_AT_EPOCH":290,"BSTAR":0.0010213,"MEAN_MOTION_DOT":0.00206616,"MEAN_MOTION_DDOT":0},{"OBJECT_NAME":"STARLINK-35911","OBJECT_ID":"2026-041M","EPOCH":"2026-03-20T06:34:23.626848","MEAN_MOTION":15.8099365,"ECCENTRICITY":8.32e-5,"INCLINATION":53.1597,"RA_OF_ASC_NODE":9.0022,"ARG_OF_PERICENTER":96.1099,"MEAN_ANOMALY":264.0018,"EPHEMERIS_TYPE":0,"CLASSIFICATION_TYPE":"U","NORAD_CAT_ID":68051,"ELEMENT_SET_NO":999,"REV_AT_EPOCH":289,"BSTAR":0.0015117,"MEAN_MOTION_DOT":0.00310368,"MEAN_MOTION_DDOT":0},{"OBJECT_NAME":"STARLINK-35808","OBJECT_ID":"2026-041N","EPOCH":"2026-03-20T12:37:31.012896","MEAN_MOTION":15.80782739,"ECCENTRICITY":0.0001235,"INCLINATION":53.1598,"RA_OF_ASC_NODE":7.7288,"ARG_OF_PERICENTER":6.3067,"MEAN_ANOMALY":353.7971,"EPHEMERIS_TYPE":0,"CLASSIFICATION_TYPE":"U","NORAD_CAT_ID":68052,"ELEMENT_SET_NO":999,"REV_AT_EPOCH":293,"BSTAR":0.000439,"MEAN_MOTION_DOT":0.00086454,"MEAN_MOTION_DDOT":0},{"OBJECT_NAME":"STARLINK-36919","OBJECT_ID":"2026-041P","EPOCH":"2026-03-20T12:36:22.499424","MEAN_MOTION":15.81038877,"ECCENTRICITY":0.0001169,"INCLINATION":53.1599,"RA_OF_ASC_NODE":7.7233,"ARG_OF_PERICENTER":93.361,"MEAN_ANOMALY":266.7547,"EPHEMERIS_TYPE":0,"CLASSIFICATION_TYPE":"U","NORAD_CAT_ID":68053,"ELEMENT_SET_NO":999,"REV_AT_EPOCH":293,"BSTAR":0.0020129,"MEAN_MOTION_DOT":0.00419701,"MEAN_MOTION_DDOT":0},{"OBJECT_NAME":"STARLINK-36924","OBJECT_ID":"2026-041Q","EPOCH":"2026-03-20T08:26:50.085312","MEAN_MOTION":15.75278883,"ECCENTRICITY":8.44e-5,"INCLINATION":53.1608,"RA_OF_ASC_NODE":8.7844,"ARG_OF_PERICENTER":120.0749,"MEAN_ANOMALY":240.0356,"EPHEMERIS_TYPE":0,"CLASSIFICATION_TYPE":"U","NORAD_CAT_ID":68054,"ELEMENT_SET_NO":999,"REV_AT_EPOCH":290,"BSTAR":0.00072205,"MEAN_MOTION_DOT":0.00111708,"MEAN_MOTION_DDOT":0},{"OBJECT_NAME":"STARLINK-35998","OBJECT_ID":"2026-041R","EPOCH":"2026-03-20T12:35:18.009600","MEAN_MOTION":15.80975256,"ECCENTRICITY":0.0001068,"INCLINATION":53.1599,"RA_OF_ASC_NODE":7.7187,"ARG_OF_PERICENTER":66.3083,"MEAN_ANOMALY":293.8051,"EPHEMERIS_TYPE":0,"CLASSIFICATION_TYPE":"U","NORAD_CAT_ID":68055,"ELEMENT_SET_NO":999,"REV_AT_EPOCH":293,"BSTAR":0.0015045,"MEAN_MOTION_DOT":0.00308541,"MEAN_MOTION_DDOT":0},{"OBJECT_NAME":"STARLINK-36845","OBJECT_ID":"2026-041S","EPOCH":"2026-03-20T12:33:08.894304","MEAN_MOTION":15.81000429,"ECCENTRICITY":0.0002302,"INCLINATION":53.1597,"RA_OF_ASC_NODE":7.7089,"ARG_OF_PERICENTER":64.7296,"MEAN_ANOMALY":295.3965,"EPHEMERIS_TYPE":0,"CLASSIFICATION_TYPE":"U","NORAD_CAT_ID":68056,"ELEMENT_SET_NO":999,"REV_AT_EPOCH":293,"BSTAR":0.001909,"MEAN_MOTION_DOT":0.00396197,"MEAN_MOTION_DDOT":0},{"OBJECT_NAME":"STARLINK-36954","OBJECT_ID":"2026-041T","EPOCH":"2026-03-20T09:57:43.811424","MEAN_MOTION":15.75281927,"ECCENTRICITY":0.0001783,"INCLINATION":53.1605,"RA_OF_ASC_NODE":8.4663,"ARG_OF_PERICENTER":43.4746,"MEAN_ANOMALY":316.6415,"EPHEMERIS_TYPE":0,"CLASSIFICATION_TYPE":"U","NORAD_CAT_ID":68057,"ELEMENT_SET_NO":999,"REV_AT_EPOCH":291,"BSTAR":0.0011105,"MEAN_MOTION_DOT":0.00173455,"MEAN_MOTION_DDOT":0},{"OBJECT_NAME":"STARLINK-36899","OBJECT_ID":"2026-041U","EPOCH":"2026-03-20T06:48:56.328192","MEAN_MOTION":15.75284309,"ECCENTRICITY":8.71e-5,"INCLINATION":53.1604,"RA_OF_ASC_NODE":9.0679,"ARG_OF_PERICENTER":90.3239,"MEAN_ANOMALY":269.7881,"EPHEMERIS_TYPE":0,"CLASSIFICATION_TYPE":"U","NORAD_CAT_ID":68058,"ELEMENT_SET_NO":999,"REV_AT_EPOCH":289,"BSTAR":0.00086401,"MEAN_MOTION_DOT":0.00134187,"MEAN_MOTION_DDOT":0}]
