STARLINK-36925          
1 68042U 26041C   26079.36558659  .00208179  00000+0  13249-2 0  9991
2 68042  53.1595   8.8746 0000900  87.9570 272.1553 15.75310145  2906
STARLINK-36902          
1 68043U 26041D   26079.27988948  .00241581  00000+0  11893-2 0  9997
2 68043  53.1601   9.0427 0001372  95.7742 264.3437 15.80950652  2897
STARLINK-36966          
1 68044U 26041E   26079.29760271  .00110029  00000+0  71168-3 0  9991
2 68044  53.1599   9.1605 0000841 104.6550 255.4563 15.75269682  2891
STARLINK-36864          
1 68045U 26041F   26079.29727484  .00078814  00000+0  51314-3 0  9997
2 68045  53.1600   9.1586 0000964 105.6169 254.4958 15.75256329  2897
STARLINK-36321          
1 68046U 26041G   26079.52976660  .00406505  00000+0  19549-2 0  9991
2 68046  53.1601   7.7555 0001298  95.8386 264.2785 15.81014966  2939
STARLINK-36181          
1 68047U 26041H   26079.40407352  .00272353  00000+0  13337-2 0  9997
2 68047  53.1601   8.3932 0000608  96.0375 264.0717 15.80980124  2919
STARLINK-36318          
1 68048U 26041J   26079.41995607  .00180493  00000+0  11540-2 0  9991
2 68048  53.1605   8.4997 0001162  53.0900 307.0226 15.75292638  2912
STARLINK-36885          
1 68049U 26041K   26079.29273411  .00169902  00000+0  10880-2 0  9998
2 68049  53.1604   9.1280 0001073  96.9445 263.1698 15.75290289  2898
STARLINK-36945          
1 68050U 26041L   26079.33860475  .00206616  00000+0  10213-2 0  9991
2 68050  53.1601   8.6947 0000745 104.6649 255.4456 15.80962691  2906
STARLINK-35911          
1 68051U 26041M   26079.27388457  .00310368  00000+0  15117-2 0  9998
2 68051  53.1597   9.0022 0000832  96.1099 264.0018 15.80993650  2898
STARLINK-35808          
1 68052U 26041N   26079.52605339  .00086454  00000+0  43900-3 0  9996
2 68052  53.1598   7.7288 0001235   6.3067 353.7971 15.80782739  2938
STARLINK-36919          
1 68053U 26041P   26079.52526041  .00419701  00000+0  20129-2 0  9991
2 68053  53.1599   7.7233 0001169  93.3610 266.7547 15.81038877  2936
STARLINK-36924          
1 68054U 26041Q   26079.35196858  .00111708  00000+0  72205-3 0  9991
2 68054  53.1608   8.7844 0000844 120.0749 240.0356 15.75278883  2903
STARLINK-35998          
1 68055U 26041R   26079.52451400  .00308541  00000+0  15045-2 0  9999
2 68055  53.1599   7.7187 0001068  66.3083 293.8051 15.80975256  2939
STARLINK-36845          
1 68056U 26041S   26079.52301961  .00396197  00000+0  19090-2 0  9994
2 68056  53.1597   7.7089 0002302  64.7296 295.3965 15.81000429  2932
STARLINK-36954          
1 68057U 26041T   26079.41509041  .00173455  00000+0  11105-2 0  9991
2 68057  53.1605   8.4663 0001783  43.4746 316.6415 15.75281927  2917
STARLINK-36899          
1 68058U 26041U   26079.28398528  .00134187  00000+0  86401-3 0  9994
2 68058  53.1604   9.0679 0000871  90.3239 269.7881 15.75284309  2895
